{
  "type": "FeatureCollection",
  "dataset_version": "podgorica-sample-2026-09",
  "features": [
    {
      "type": "Feature",
      "properties": {
        "id": 1,
        "file_key": "podgorica/planning-documents/1/document.pdf",
        "page_count": 8,
        "page_images_rendered": false,
        "name": "PUP Glavni grad (izvod)",
        "type": "PUP",
        "status": "adopted",
        "coverage_live": true,
        "source": "eRegistri",
        "source_url": "https://lamp.gov.me/PlanningDocument?m=PG",
        "zone_id": 1
      },
      "geometry": {
        "type": "Polygon",
        "coordinates": [[[19.250, 42.435], [19.275, 42.435], [19.275, 42.450], [19.250, 42.450], [19.250, 42.435]]]
      }
    },
    {
      "type": "Feature",
      "properties": {
        "id": 2,
        "file_key": "podgorica/planning-documents/2/document.pdf",
        "page_count": 24,
        "page_images_rendered": false,
        "name": "DUP Centar – Zona C2",
        "type": "DUP",
        "status": "adopted",
        "coverage_live": true,
        "source": "eRegistri",
        "source_url": "https://lamp.gov.me/PlanningDocument?m=PG",
        "zone_id": 1
      },
      "geometry": {
        "type": "Polygon",
        "coordinates": [[[19.258, 42.438], [19.268, 42.438], [19.268, 42.446], [19.258, 42.446], [19.258, 42.438]]]
      }
    },
    {
      "type": "Feature",
      "properties": {
        "id": 3,
        "name": "Izmjene i dopune DUP-a Centar 2023",
        "type": "DUP",
        "status": "in_progress",
        "source": "eRegistri",
        "source_url": "https://lamp.gov.me/PlanningDocument?m=PG",
        "zone_id": 1,
        "amends_document_id": 2
      },
      "geometry": {
        "type": "Polygon",
        "coordinates": [[[19.276, 42.435], [19.285, 42.435], [19.285, 42.450], [19.276, 42.450], [19.276, 42.435]]]
      }
    },
    {
      "type": "Feature",
      "properties": {
        "id": 4,
        "file_key": "podgorica/planning-documents/4/document.pdf",
        "page_count": 16,
        "page_images_rendered": false,
        "name": "DUP Stari Aerodrom",
        "type": "DUP",
        "status": "adopted",
        "coverage_live": true,
        "source": "eRegistri",
        "source_url": "https://lamp.gov.me/PlanningDocument?m=PG",
        "zone_id": 2
      },
      "geometry": {
        "type": "Polygon",
        "coordinates": [[[19.290, 42.430], [19.300, 42.430], [19.300, 42.440], [19.290, 42.440], [19.290, 42.430]]]
      }
    },
    {
      "type": "Feature",
      "properties": {
        "id": 5,
        "file_key": "podgorica/planning-documents/5/document.pdf",
        "page_count": 12,
        "page_images_rendered": false,
        "name": "DUP Stari Aerodrom (2009)",
        "type": "DUP",
        "status": "superseded",
        "source": "eRegistri",
        "source_url": "https://lamp.gov.me/PlanningDocument?m=PG",
        "zone_id": 2
      },
      "geometry": {
        "type": "Polygon",
        "coordinates": [[[19.290, 42.430], [19.300, 42.430], [19.300, 42.440], [19.290, 42.440], [19.290, 42.430]]]
      }
    }
  ]
}
